K2SAT
1 43761U 18099D   26200.56767357  .00000780  00000-0  56519-4 0  9999
2 43761  97.4166 240.2033 0010090 228.0533 131.9836 15.06685548416980
AISTECHSAT-2
1 43768U 18099L   26200.37386239  .00002392  00000-0  12889-3 0  9993
2 43768  97.4274 247.7063 0005074 167.0318 193.1046 15.15736788417157
SNUSAT-2
1 43782U 18099AA  26200.61254311  .00004165  00000-0  18372-3 0  9994
2 43782  97.4039 253.5046 0010701 172.7563 187.3830 15.22278234417966
ITASAT-1
1 43786U 18099AE  26200.62435113  .00003259  00000-0  15690-3 0  9993
2 43786  97.4008 251.4933 0011118 232.9708 127.0510 15.19411242417837
EAGLET-1
1 43790U 18099AJ  26200.59045670  .00001578  00000-0  92539-4 0  9999
2 43790  97.4212 249.4021 0009882 226.9623 133.0781 15.13151890417233
ESEO
1 43792U 18099AL  26200.37520814  .00001072  00000-0  81016-4 0  9992
2 43792  97.3963 236.3838 0011097 217.1128 142.9333 15.04333053416640
MINXSS-2
1 43758U 18099A   26200.15408631  .00023640  00000-0  43720-3 0  9996
2 43758  97.4519 277.4240 0008831 148.4623 211.7159 15.49007241419078
FOX-1CLIFF (AO-95)
1 43770U 18099N   26200.12101160  .00006021  00000-0  22763-3 0  9992
2 43770  97.4363 260.2606 0007552 223.6290 136.4353 15.27321019418098
CORVUS-BC4
1 43767U 18099K   26200.07385115  .00002224  00000-0  13058-3 0  9994
2 43767  97.4047 242.1222 0006701 244.0849 115.9692 15.12717787417225
CZ-4B R/B
1 43656U 18081B   26200.53900052  .00000029  00000-0  25645-4 0  9993
2 43656  99.3655 121.0417 0204759 173.3137 187.0853 14.31872949403930
COSMOS 2504 [i]
1 40555U 15020D   26200.59927352  .00000120  00000-0  37605-4 0  9997
2 40555  82.5149 206.2412 0607503 186.0738 173.2810 13.61396211554606
MERIDIAN-6
1 38995U 12063A   26199.48794402  .00000046  00000-0  00000-0 0  9991
2 38995  63.9573 350.6951 7358450 228.1999  40.6250  2.00741843100131
MERIDIAN-7
1 40296U 14069A   26200.58778358  .00000279  00000-0  00000-0 0  9990
2 40296  63.4510 212.1638 6636644 270.3520  19.8499  2.00598324 85881
METOP-C
1 43689U 18087A   26200.58697713  .00000027  00000-0  32371-4 0  9999
2 43689  98.6626 259.5954 0002111  88.0938 272.0482 14.21503573399433
FENGYUN-3B
1 37214U 10059A   26200.63997436  .00000436  00000-0  24866-3 0  9991
2 37214  98.9598 246.7894 0023174  94.6061  57.3967 14.14849473812014
FENGYUN-3C
1 39260U 13052A   26200.62421834  .00000015  00000-0  28884-4 0  9991
2 39260  98.5003 173.0136 0013523 292.2660  67.7081 14.15761218663155
EWS-G1 (GOES-13)
1 29155U 06018A   26200.41989162  .00000044  00000-0  00000-0 0  9995
2 29155   4.6149  76.0324 0059971 278.9236 329.8422  0.98785350 43561
FENGYUN-2H
1 43491U 18050A   26200.56469444 -.00000131  00000-0  00000-0 0  9993
2 43491   3.1130  78.6970 0002154 132.1014   8.9037  1.00266982 29767
FENGYUN-2G
1 40367U 14090A   26200.56876779 -.00000309  00000-0  00000-0 0  9992
2 40367   5.7190  72.4248 0003943 173.8408 355.2922  1.00279277 42325
INMARSAT 4-F1
1 28628U 05009A   26200.35624557  .00000025  00000-0  00000-0 0  9994
2 28628   5.2118  42.7953 0002685  73.6174 127.0737  1.00272223 77992
INMARSAT 4-F2
1 28899U 05044A   26200.50606508 -.00000267  00000-0  00000-0 0  9995
2 28899   5.1373  43.6791 0002880  61.6466 157.6414  1.00271241 75844
INMARSAT 4-F3
1 33278U 08039A   26200.47586338 -.00000146  00000-0  00000-0 0  9999
2 33278   4.3208  31.7066 0002699  94.6633 244.2168  1.00271687 46865
INMARSAT 4A-F4 (ALPHASAT)
1 39215U 13038A   26200.34011573  .00000128  00000-0  00000-0 0  9990
2 39215   2.9995   1.1775 0002516 138.4676 304.7927  1.00273925 44342
ASTROCAST
1 43798U 18099AS  26200.59141437  .00022690  00000-0  38268-3 0  9991
2 43798  97.4363 280.1499 0005412 117.5429 242.6374 15.51659733419455
JY1SAT (JO-97)
1 43803U 18099AX  26200.12106041  .00009568  00000-0  28756-3 0  9999
2 43803  97.4105 263.0849 0007161 146.3661 213.8038 15.34595342418526
SUOMI-100
1 43804U 18099AY  26200.14780735  .00006320  00000-0  22615-3 0  9991
2 43804  97.4163 260.4344 0010916 159.3482 200.8202 15.29085912418305
GEO-KOMPSAT-2A
1 43823U 18100A   26200.50311840 -.00000348  00000-0  00000-0 0  9998
2 43823   0.0292 151.1707 0002343 306.6538 148.8455  1.00272684 27958
UWE-4
1 43880U 18111E   26200.29572160  .00018709  00000-0  35945-3 0  9991
2 43880  97.5832 130.2123 0006761 178.8954 181.2312 15.47979433415744
D-STAR ONE SPARROW
1 43881U 18111F   26200.36366621  .00208798  00000-0  80677-3 0  9994
2 43881  97.6072 144.5530 0008865 135.9065 224.2914 15.86671034416450
METEOR M2-2
1 44387U 19038A   26200.55781140 -.00000124  00000-0 -33928-4 0  9996
2 44387  98.9168 188.3241 0000459 355.5966   4.5208 14.24373189365907
MOMENTUS-X1
1 44408U 19038Y   26200.08475194  .00030460  00000-0  26136-3 0  9993
2 44408  97.6718 248.4533 0006077 231.7156 128.3558 15.69324856391558
MERIDIAN-8
1 44453U 19046A   26198.62717281 -.00000026  00000-0  00000-0 0  9999
2 44453  63.1544  46.8150 7082663 274.9454  14.5923  2.00596694 50950
TAURUS-1
1 44530U 19059C   26200.59322160  .00002402  00000-0  38798-3 0  9994
2 44530  98.6447   7.4433 0008387 201.0772 159.0089 14.72392317363410
GAOFEN 12-01
1 44819U 19082A   26200.58922375  .00000140  00000-0  24920-4 0  9993
2 44819  97.8112 206.1150 0000764  62.0116 298.1174 14.80481362358885
CAS-6 (TO-108)
1 44881U 19093C   26200.62348295  .00000672  00000-0  81806-4 0  9998
2 44881  97.7514 272.0629 0013140 346.8176  13.2695 14.86564844356237
ELEKTRO-L3
1 44903U 19095A   26200.16483560 -.00000102  00000-0  00000-0 0  9991
2 44903   0.3374  82.3610 0001481  18.7927 331.1277  1.00271683 24027
DOSAAF-85 (RS-44)
1 44909U 19096E   26200.60644125  .00000006  00000-0 -28789-4 0  9994
2 44909  82.5239 318.1640 0218445  68.7297 293.6978 12.79748863306494
MERIDIAN-9
1 45254U 20015A   26200.37110455 -.00000105  00000-0  00000-0 0  9991
2 45254  65.5295 315.5731 6848275 277.3563  15.6938  2.00607965 46931
DEKART
1 46493U 20068H   26200.61353794  .00006565  00000-0  17780-3 0  9998
2 46493  97.8747 212.2230 0009736 158.2477 201.9182 15.38008906320751
NORBY
1 46494U 20068J   26200.58321475  .00013709  00000-0  24827-3 0  9994
2 46494  97.8617 219.4360 0008558 130.7821 229.4172 15.49745515321223
SALSAT (TUBSAT 22)
1 46495U 20068K   26200.45326485  .00003827  00000-0  13372-3 0  9990
2 46495  97.8865 205.4942 0009672 177.8105 182.3178 15.30206359320292
NETSAT-4
1 46504U 20068U   26200.45619172  .00009489  00000-0  20436-3 0  9998
2 46504  97.8610 211.3155 0005299 178.1363 181.9905 15.44843960320758
NETSAT-3
1 46505U 20068V   26200.48674368  .00010094  00000-0  22582-3 0  9998
2 46505  97.8662 209.5262 0004359 193.4083 166.7048 15.43698529320666
NETSAT-1
1 46506U 20068W   26200.46882532  .00006485  00000-0  19178-3 0  9997
2 46506  97.8761 203.4484 0002712 237.4544 122.6437 15.35303723320256
NETSAT-2
1 46507U 20068X   26200.51308388  .00013683  00000-0  27025-3 0  9994
2 46507  97.8621 211.3972 0002776 190.7949 169.3240 15.47282120320735
ARKTIKA-M1
1 47719U 21016A   26195.40739072 -.00000301  00000-0  00000-0 0  9998
2 47719  63.2662  53.6722 7297332 270.0591  14.4994  2.00611590 39330
UNISAT-7
1 47945U 21022P   26200.43436089  .00007952  00000-0  19310-3 0  9993
2 47945  97.3849 105.7085 0007322 331.3277  28.7566 15.41266325294821
CSS (TIANHE-1)
1 48274U 21035A   26200.50932682  .00010866  00000-0  14394-3 0  9996
2 48274  41.4683 125.6834 0001984 305.8498  54.2155 15.58197952298217
FENGYUN-4B
1 48808U 21047A   26200.22294310 -.00000336  00000-0  00000-0 0  9998
2 48808   0.2306  80.1873 0006861 273.3927 128.2750  1.00277813 18892
JILIN-01 GAOFEN 2F
1 49338U 21097A   26200.61819838  .00002061  00000-0  13775-3 0  9995
2 49338  97.6736 326.7478 0019999 115.6417 244.6880 15.07967266261208
TEIKYOSAT-4 (OORURI)
1 49396U 21102B   26200.07072614  .00000759  00000-0  50932-4 0  9998
2 49396  97.3661 228.3148 0012110 175.2819 184.8527 15.09606558257533
Z-SAT
1 49399U 21102E   26200.62169243  .00002969  00000-0  14665-3 0  9994
2 49399  97.3310 234.9619 0017955 130.1228 230.1583 15.18485043258362
KOSEN-1
1 49402U 21102H   26200.57785603  .00003885  00000-0  14779-3 0  9991
2 49402  97.3167 242.1115 0015436  94.0066 266.2938 15.27249693258968
CAMSAT XW-3 (CAS-9)
1 50466U 21131B   26200.61187462  .00000236  00000-0  86640-4 0  9993
2 50466  98.4987 292.8268 0004315  19.0952 341.0398 14.41384001239787
GOES-18
1 51850U 22021A   26200.49628082  .00000000  00000-0  00000-0 0  9995
2 51850   0.0153  90.5430 0000634  67.3724 181.0390  1.00271792  6910
MERIDIAN-10
1 52145U 22030A   26199.87196925  .00000141  00000-0  00000-0 0  9994
2 52145  62.6769 137.3726 6792946 272.8407  17.5942  2.00608966 31668
BRO-6
1 52422U 22047AE  26200.57502709  .00025170  00000-0  40748-3 0  9996
2 52422  97.3381 292.3047 0002861 283.6795  76.4140 15.52795928236176
STEP CUBELAB-II
1 52897U 22065D   26200.61548149  .00000338  00000-0  74790-4 0  9999
2 52897  98.2273 344.4248 0007256 286.5086  73.5318 14.63346317216248
RANDEV
1 52898U 22065E   26200.60796795  .00000344  00000-0  75359-4 0  9990
2 52898  98.2256 344.7832 0006624 287.0399  73.0077 14.63735141215998
SNUGLITE-II
1 52899U 22065F   26200.62403456  .00000411  00000-0  86947-4 0  9992
2 52899  98.2243 345.4048 0006141 283.8091  76.2427 14.64398349215742
MIMAN
1 52900U 22065G   26200.35508217  .00000213  00000-0  52066-4 0  9991
2 52900  98.2302 342.6829 0006308 288.3094  71.7420 14.61873755215148
GREENCUBE (IO-117)
1 53106U 22080B   25051.21822557 -.00000003  00000-0  00000 0 0  9995
2 53106  70.1434 106.3440 0008542  48.0089 312.1297  6.42557744 61200
ROBUSTA 1F (MTCUBE-2)
1 53109U 22080E   26200.24539926 -.00000003  00000-0  00000-0 0  9994
2 53109  70.1403 287.0980 0009086 282.5487  77.4156  6.42583325 94122
BLUEWALKER-3
1 53807U 22111AL  26200.40152100  .00002815  00000-0  82884-4 0  9993
2 53807  53.2278 242.6898 0004641 285.1596  74.8896 15.38634996215163
